[
  {
    "id": "hokkaido-pref",
    "code": "01",
    "regionId": "hokkaido",
    "slug": "hokkaido-pref",
    "name_en": "Hokkaido Prefecture",
    "name_ja": "北海道",
    "name_zh": "北海道",
    "bbox": [139.3, 41.3, 145.8, 45.5]
  },
  {
    "id": "aomori",
    "code": "02",
    "regionId": "tohoku",
    "slug": "aomori",
    "name_en": "Aomori Prefecture",
    "name_ja": "青森県",
    "name_zh": "青森縣",
    "bbox": [139.5, 40.2, 141.7, 41.6]
  },
  {
    "id": "iwate",
    "code": "03",
    "regionId": "tohoku",
    "slug": "iwate",
    "name_en": "Iwate Prefecture",
    "name_ja": "岩手県",
    "name_zh": "岩手縣",
    "bbox": [140.7, 38.7, 142.1, 40.4]
  },
  {
    "id": "miyagi",
    "code": "04",
    "regionId": "tohoku",
    "slug": "miyagi",
    "name_en": "Miyagi Prefecture",
    "name_ja": "宮城県",
    "name_zh": "宮城縣",
    "bbox": [140.3, 37.8, 141.7, 39.0]
  },
  {
    "id": "akita",
    "code": "05",
    "regionId": "tohoku",
    "slug": "akita",
    "name_en": "Akita Prefecture",
    "name_ja": "秋田県",
    "name_zh": "秋田縣",
    "bbox": [139.3, 38.9, 140.9, 40.6]
  },
  {
    "id": "yamagata",
    "code": "06",
    "regionId": "tohoku",
    "slug": "yamagata",
    "name_en": "Yamagata Prefecture",
    "name_ja": "山形県",
    "name_zh": "山形縣",
    "bbox": [139.3, 37.7, 140.6, 39.0]
  },
  {
    "id": "fukushima",
    "code": "07",
    "regionId": "tohoku",
    "slug": "fukushima",
    "name_en": "Fukushima Prefecture",
    "name_ja": "福島県",
    "name_zh": "福島縣",
    "bbox": [139.3, 36.8, 141.0, 37.9]
  },
  {
    "id": "ibaraki",
    "code": "08",
    "regionId": "kanto",
    "slug": "ibaraki",
    "name_en": "Ibaraki Prefecture",
    "name_ja": "茨城県",
    "name_zh": "茨城縣",
    "bbox": [139.7, 35.7, 140.9, 36.9]
  },
  {
    "id": "tochigi",
    "code": "09",
    "regionId": "kanto",
    "slug": "tochigi",
    "name_en": "Tochigi Prefecture",
    "name_ja": "栃木県",
    "name_zh": "栃木縣",
    "bbox": [139.3, 36.2, 140.3, 37.0]
  },
  {
    "id": "gunma",
    "code": "10",
    "regionId": "kanto",
    "slug": "gunma",
    "name_en": "Gunma Prefecture",
    "name_ja": "群馬県",
    "name_zh": "群馬縣",
    "bbox": [138.4, 36.0, 139.9, 37.0]
  },
  {
    "id": "saitama",
    "code": "11",
    "regionId": "kanto",
    "slug": "saitama",
    "name_en": "Saitama Prefecture",
    "name_ja": "埼玉県",
    "name_zh": "埼玉縣",
    "bbox": [138.7, 35.7, 139.9, 36.3]
  },
  {
    "id": "chiba",
    "code": "12",
    "regionId": "kanto",
    "slug": "chiba",
    "name_en": "Chiba Prefecture",
    "name_ja": "千葉県",
    "name_zh": "千葉縣",
    "bbox": [139.7, 34.9, 140.9, 36.1]
  },
  {
    "id": "tokyo",
    "code": "13",
    "regionId": "kanto",
    "slug": "tokyo",
    "name_en": "Tokyo",
    "name_ja": "東京都",
    "name_zh": "東京都",
    "bbox": [138.9, 35.5, 139.9, 35.9]
  },
  {
    "id": "kanagawa",
    "code": "14",
    "regionId": "kanto",
    "slug": "kanagawa",
    "name_en": "Kanagawa Prefecture",
    "name_ja": "神奈川県",
    "name_zh": "神奈川縣",
    "bbox": [139.0, 35.1, 139.8, 35.6]
  },
  {
    "id": "niigata",
    "code": "15",
    "regionId": "chubu",
    "slug": "niigata",
    "name_en": "Niigata Prefecture",
    "name_ja": "新潟県",
    "name_zh": "新潟縣",
    "bbox": [137.6, 36.7, 139.9, 38.6]
  },
  {
    "id": "toyama",
    "code": "16",
    "regionId": "chubu",
    "slug": "toyama",
    "name_en": "Toyama Prefecture",
    "name_ja": "富山県",
    "name_zh": "富山縣",
    "bbox": [136.8, 36.3, 137.9, 36.9]
  },
  {
    "id": "ishikawa",
    "code": "17",
    "regionId": "chubu",
    "slug": "ishikawa",
    "name_en": "Ishikawa Prefecture",
    "name_ja": "石川県",
    "name_zh": "石川縣",
    "bbox": [136.2, 36.0, 137.4, 37.9]
  },
  {
    "id": "fukui",
    "code": "18",
    "regionId": "chubu",
    "slug": "fukui",
    "name_en": "Fukui Prefecture",
    "name_ja": "福井県",
    "name_zh": "福井縣",
    "bbox": [135.4, 35.3, 136.9, 36.4]
  },
  {
    "id": "yamanashi",
    "code": "19",
    "regionId": "chubu",
    "slug": "yamanashi",
    "name_en": "Yamanashi Prefecture",
    "name_ja": "山梨県",
    "name_zh": "山梨縣",
    "bbox": [138.2, 35.1, 139.2, 35.9]
  },
  {
    "id": "nagano",
    "code": "20",
    "regionId": "chubu",
    "slug": "nagano",
    "name_en": "Nagano Prefecture",
    "name_ja": "長野県",
    "name_zh": "長野縣",
    "bbox": [137.3, 35.2, 138.9, 37.0]
  },
  {
    "id": "gifu",
    "code": "21",
    "regionId": "chubu",
    "slug": "gifu",
    "name_en": "Gifu Prefecture",
    "name_ja": "岐阜県",
    "name_zh": "岐阜縣",
    "bbox": [136.2, 35.3, 137.7, 36.4]
  },
  {
    "id": "shizuoka",
    "code": "22",
    "regionId": "chubu",
    "slug": "shizuoka",
    "name_en": "Shizuoka Prefecture",
    "name_ja": "静岡県",
    "name_zh": "靜岡縣",
    "bbox": [137.5, 34.6, 139.2, 35.7]
  },
  {
    "id": "aichi",
    "code": "23",
    "regionId": "chubu",
    "slug": "aichi",
    "name_en": "Aichi Prefecture",
    "name_ja": "愛知県",
    "name_zh": "愛知縣",
    "bbox": [136.7, 34.6, 137.9, 35.4]
  },
  {
    "id": "mie",
    "code": "24",
    "regionId": "kinki",
    "slug": "mie",
    "name_en": "Mie Prefecture",
    "name_ja": "三重県",
    "name_zh": "三重縣",
    "bbox": [135.8, 33.7, 136.9, 35.2]
  },
  {
    "id": "shiga",
    "code": "25",
    "regionId": "kinki",
    "slug": "shiga",
    "name_en": "Shiga Prefecture",
    "name_ja": "滋賀県",
    "name_zh": "滋賀縣",
    "bbox": [135.8, 34.9, 136.4, 35.7]
  },
  {
    "id": "kyoto",
    "code": "26",
    "regionId": "kinki",
    "slug": "kyoto",
    "name_en": "Kyoto",
    "name_ja": "京都府",
    "name_zh": "京都府",
    "bbox": [135.0, 34.7, 136.0, 35.8]
  },
  {
    "id": "osaka",
    "code": "27",
    "regionId": "kinki",
    "slug": "osaka",
    "name_en": "Osaka",
    "name_ja": "大阪府",
    "name_zh": "大阪府",
    "bbox": [135.1, 34.3, 135.8, 34.8]
  },
  {
    "id": "hyogo",
    "code": "28",
    "regionId": "kinki",
    "slug": "hyogo",
    "name_en": "Hyogo Prefecture",
    "name_ja": "兵庫県",
    "name_zh": "兵庫縣",
    "bbox": [134.2, 34.3, 135.5, 35.7]
  },
  {
    "id": "nara",
    "code": "29",
    "regionId": "kinki",
    "slug": "nara",
    "name_en": "Nara Prefecture",
    "name_ja": "奈良県",
    "name_zh": "奈良縣",
    "bbox": [135.6, 33.9, 136.1, 34.8]
  },
  {
    "id": "wakayama",
    "code": "30",
    "regionId": "kinki",
    "slug": "wakayama",
    "name_en": "Wakayama Prefecture",
    "name_ja": "和歌山県",
    "name_zh": "和歌山縣",
    "bbox": [135.1, 33.4, 136.0, 34.4]
  },
  {
    "id": "tottori",
    "code": "31",
    "regionId": "chugoku",
    "slug": "tottori",
    "name_en": "Tottori Prefecture",
    "name_ja": "鳥取県",
    "name_zh": "鳥取縣",
    "bbox": [133.3, 35.0, 134.6, 35.7]
  },
  {
    "id": "shimane",
    "code": "32",
    "regionId": "chugoku",
    "slug": "shimane",
    "name_en": "Shimane Prefecture",
    "name_ja": "島根県",
    "name_zh": "島根縣",
    "bbox": [131.7, 34.0, 133.9, 35.8]
  },
  {
    "id": "okayama",
    "code": "33",
    "regionId": "chugoku",
    "slug": "okayama",
    "name_en": "Okayama Prefecture",
    "name_ja": "岡山県",
    "name_zh": "岡山縣",
    "bbox": [133.2, 34.3, 134.7, 35.4]
  },
  {
    "id": "hiroshima",
    "code": "34",
    "regionId": "chugoku",
    "slug": "hiroshima",
    "name_en": "Hiroshima Prefecture",
    "name_ja": "広島県",
    "name_zh": "廣島縣",
    "bbox": [132.0, 34.0, 133.3, 35.0]
  },
  {
    "id": "yamaguchi",
    "code": "35",
    "regionId": "chugoku",
    "slug": "yamaguchi",
    "name_en": "Yamaguchi Prefecture",
    "name_ja": "山口県",
    "name_zh": "山口縣",
    "bbox": [130.8, 33.7, 132.2, 34.7]
  },
  {
    "id": "tokushima",
    "code": "36",
    "regionId": "shikoku",
    "slug": "tokushima",
    "name_en": "Tokushima Prefecture",
    "name_ja": "徳島県",
    "name_zh": "德島縣",
    "bbox": [133.5, 33.4, 134.8, 34.4]
  },
  {
    "id": "kagawa",
    "code": "37",
    "regionId": "shikoku",
    "slug": "kagawa",
    "name_en": "Kagawa Prefecture",
    "name_ja": "香川県",
    "name_zh": "香川縣",
    "bbox": [133.4, 34.1, 134.5, 34.5]
  },
  {
    "id": "ehime",
    "code": "38",
    "regionId": "shikoku",
    "slug": "ehime",
    "name_en": "Ehime Prefecture",
    "name_ja": "愛媛県",
    "name_zh": "愛媛縣",
    "bbox": [132.5, 32.9, 133.9, 34.4]
  },
  {
    "id": "kochi",
    "code": "39",
    "regionId": "shikoku",
    "slug": "kochi",
    "name_en": "Kochi Prefecture",
    "name_ja": "高知県",
    "name_zh": "高知縣",
    "bbox": [132.7, 32.7, 134.3, 33.9]
  },
  {
    "id": "fukuoka",
    "code": "40",
    "regionId": "kyushu",
    "slug": "fukuoka",
    "name_en": "Fukuoka Prefecture",
    "name_ja": "福岡県",
    "name_zh": "福岡縣",
    "bbox": [129.7, 33.0, 131.3, 34.0]
  },
  {
    "id": "saga",
    "code": "41",
    "regionId": "kyushu",
    "slug": "saga",
    "name_en": "Saga Prefecture",
    "name_ja": "佐賀県",
    "name_zh": "佐賀縣",
    "bbox": [129.7, 33.0, 130.4, 33.5]
  },
  {
    "id": "nagasaki",
    "code": "42",
    "regionId": "kyushu",
    "slug": "nagasaki",
    "name_en": "Nagasaki Prefecture",
    "name_ja": "長崎県",
    "name_zh": "長崎縣",
    "bbox": [128.8, 32.6, 130.4, 34.7]
  },
  {
    "id": "kumamoto",
    "code": "43",
    "regionId": "kyushu",
    "slug": "kumamoto",
    "name_en": "Kumamoto Prefecture",
    "name_ja": "熊本県",
    "name_zh": "熊本縣",
    "bbox": [130.2, 32.2, 131.3, 33.3]
  },
  {
    "id": "oita",
    "code": "44",
    "regionId": "kyushu",
    "slug": "oita",
    "name_en": "Oita Prefecture",
    "name_ja": "大分県",
    "name_zh": "大分縣",
    "bbox": [130.8, 32.8, 131.9, 33.8]
  },
  {
    "id": "miyazaki",
    "code": "45",
    "regionId": "kyushu",
    "slug": "miyazaki",
    "name_en": "Miyazaki Prefecture",
    "name_ja": "宮崎県",
    "name_zh": "宮崎縣",
    "bbox": [130.7, 31.4, 131.9, 32.9]
  },
  {
    "id": "kagoshima",
    "code": "46",
    "regionId": "kyushu",
    "slug": "kagoshima",
    "name_en": "Kagoshima Prefecture",
    "name_ja": "鹿児島県",
    "name_zh": "鹿兒島縣",
    "bbox": [129.4, 24.4, 131.0, 32.1]
  },
  {
    "id": "okinawa",
    "code": "47",
    "regionId": "okinawa",
    "slug": "okinawa",
    "name_en": "Okinawa Prefecture",
    "name_ja": "沖縄県",
    "name_zh": "沖繩縣",
    "bbox": [122.9, 24.0, 131.3, 27.9]
  }
]